TIANMU-1 20             
1 58661U 23208B   26191.30196455  .00005718  00000+0  18118-3 0  9995
2 58661  97.4457 308.3867 0005925 231.9807 128.0901 15.33116437140965
TIANMU-1 21             
1 58662U 23208C   26191.32022148  .00006745  00000+0  19786-3 0  9998
2 58662  97.4516 311.1870 0006239 223.1883 136.8872 15.35494346141116
TIANMU-1 22             
1 58663U 23208D   26191.27186218  .00005334  00000+0  17859-3 0  9994
2 58663  97.4512 307.6132 0002380 243.2657 116.8340 15.31383025140865
TIANMU-1 15             
1 58700U 24004A   26191.29771350  .00003714  00000+0  14346-3 0  9998
2 58700  97.4671  17.4886 0005778 249.7865 110.2752 15.26882346139307
TIANMU-1 16             
1 58701U 24004B   26191.28751096  .00003525  00000+0  13592-3 0  9995
2 58701  97.4619  16.6978 0004314 269.1871  90.8873 15.26984651139300
TIANMU-1 17             
1 58702U 24004C   26191.33851733  .00003952  00000+0  15202-3 0  9995
2 58702  97.4646  17.2421 0003825 276.4406  83.6397 15.26983776139300
TIANMU-1 18             
1 58703U 24004D   26191.31433603  .00003549  00000+0  13716-3 0  9996
2 58703  97.4664  17.4801 0003463 248.5411 111.5458 15.26899298139303
INSAT-3DS               
1 58990U 24033A   26191.08410605 -.00000144  00000+0  00000+0 0  9994
2 58990   0.1055 265.8584 0001094 222.9182 271.5864  1.00271714 47290
METEOR-M2 4             
1 59051U 24039A   26191.32594108 -.00000006  00000+0  17044-4 0  9995
2 59051  98.7022 150.3346 0008217 100.8739 259.3364 14.22431853122558
GOES 19                 
1 60133U 24119A   26191.16174627 -.00000237  00000+0  00000+0 0  9994
2 60133   0.0073 145.0944 0000587  63.0042  63.0239  1.00270419  7191
MTG-S1                  
1 64723U 25143A   26191.33308481  .00000003  00000+0  00000+0 0  9997
2 64723   0.5871 343.9079 0003443 262.0245 161.8007  1.00272693  3652
METOP-SGA1              
1 65159U 25172A   26191.11332801  .00000004  00000+0  22113-4 0  9997
2 65159  98.6632 250.3563 0007338 347.5766  12.5229 14.19818630 47042
FENGYUN 3H              
1 65815U 25219A   26190.59021699  .00000022  00000+0  30852-4 0  9998
2 65815  98.6772 130.9242 0001269  63.2177 296.9130 14.19924262 40566
