OBJECT_NAME,OBJECT_ID,EPOCH,MEAN_MOTION,ECCENTRICITY,INCLINATION,RA_OF_ASC_NODE,ARG_OF_PERICENTER,MEAN_ANOMALY,EPHEMERIS_TYPE,CLASSIFICATION_TYPE,NORAD_CAT_ID,ELEMENT_SET_NO,REV_AT_EPOCH,BSTAR,MEAN_MOTION_DOT,MEAN_MOTION_DDOT
TIANMU-1 20,2023-208B,2026-07-10T07:14:49.737120,15.33116437,.00059251,97.4457,308.3867,231.9807,128.0901,0,U,58661,999,14096,.18117571E-3,.5718E-4,0
TIANMU-1 21,2023-208C,2026-07-10T07:41:07.135872,15.35494346,.00062393,97.4516,311.1870,223.1883,136.8872,0,U,58662,999,14111,.1978636E-3,.6745E-4,0
TIANMU-1 22,2023-208D,2026-07-10T06:31:28.892352,15.31383025,.00023804,97.4512,307.6132,243.2657,116.8340,0,U,58663,999,14086,.17858646E-3,.5334E-4,0
TIANMU-1 15,2024-004A,2026-07-10T07:08:42.446400,15.26882346,.00057786,97.4671,17.4886,249.7865,110.2752,0,U,58700,999,13930,.14345889E-3,.3714E-4,0
TIANMU-1 16,2024-004B,2026-07-10T06:54:00.946944,15.26984651,.00043147,97.4619,16.6978,269.1871,90.8873,0,U,58701,999,13930,.13592276E-3,.3525E-4,0
TIANMU-1 17,2024-004C,2026-07-10T08:07:27.897312,15.26983776,.00038259,97.4646,17.2421,276.4406,83.6397,0,U,58702,999,13930,.15201933E-3,.3952E-4,0
TIANMU-1 18,2024-004D,2026-07-10T07:32:38.632992,15.26899298,.00034631,97.4664,17.4801,248.5411,111.5458,0,U,58703,999,13930,.13716036E-3,.3549E-4,0
INSAT-3DS,2024-033A,2026-07-10T02:01:06.762720,1.00271714,.00010942,0.1055,265.8584,222.9182,271.5864,0,U,58990,999,4729,0,-.144E-5,0
METEOR-M2 4,2024-039A,2026-07-10T07:49:21.309312,14.22431853,.00082177,98.7022,150.3346,100.8739,259.3364,0,U,59051,999,12255,.17043908E-4,-.6E-7,0
GOES 19,2024-119A,2026-07-10T03:52:54.877728,1.00270419,.00005878,0.0073,145.0944,63.0042,63.0239,0,U,60133,999,719,0,-.237E-5,0
MTG-S1,2025-143A,2026-07-10T07:59:38.527584,1.00272693,.00034438,0.5871,343.9079,262.0245,161.8007,0,U,64723,999,365,0,.3E-7,0
METOP-SGA1,2025-172A,2026-07-10T02:43:11.540064,14.19818630,.00073388,98.6632,250.3563,347.5766,12.5229,0,U,65159,999,4704,.22112683E-4,.4E-7,0
FENGYUN 3H,2025-219A,2026-07-09T14:09:54.747936,14.19924262,.00012699,98.6772,130.9242,63.2177,296.9130,0,U,65815,999,4056,.30852092E-4,.22E-6,0
